satname,norad_id,inclination_deg,eccentricity,mean_motion_rev_per_day,perigee_km,apogee_km,l1,l2
STARLINK-1008,44714,53.1516,0.0002576,15.49516765,416.3879804077669,419.88942164893706,1 44714U 19074B   26163.08770731  .00106479  00000+0  18826-2 0  9995,2 44714  53.1516  93.1340 0002576 106.3885 253.7408 15.49516765363420
STARLINK-1012,44718,53.1559,0.0002345,15.49856279,415.5526355295342,418.73962331723305,1 44718U 19074F   26163.79426044  .00060738  00000+0  10708-2 0  9990,2 44718  53.1559  90.0331 0002345 113.2893 246.8363 15.49856279363528
STARLINK-1017,44723,53.0474,0.0005138,15.31739776,467.1025355251695,474.1403196853771,1 44723U 19074L   26163.11660895  .00041346  00000+0  13346-2 0  9991,2 44723  53.0474  93.1281 0005138  52.6496 307.4971 15.31739776363404
STARLINK-1020,44725,53.1562,0.0004073,15.55038046,399.2804696768717,404.80360352008483,1 44725U 19074N   26163.15719439  .00065214  00000+0  95319-3 0  9997,2 44725  53.1562 116.9732 0004073  81.0353 279.1119 15.55038046363075
STARLINK-1036,44741,53.0421,0.0002693,15.69649509,358.0853047403143,361.71441139206945,1 44741U 19074AE  26163.05729831  .00052931  00000+0  43997-3 0  9998,2 44741  53.0421  86.0483 0002693  26.0042 334.1110 15.69649509363492
STARLINK-1039,44744,53.0563,0.0003984,15.2888089,476.4245799491773,481.88847143044586,1 44744U 19074AH  26163.21953478  .00033836  00000+0  11966-2 0  9998,2 44744  53.0563 138.1304 0003984  54.6758 305.4613 15.28880890362783
STARLINK-1042,44747,53.043,0.0002641,15.54417284,402.05592002296817,405.6381639939573,1 44747U 19074AL  26163.81898220  .00028073  00000+0  42581-3 0  9995,2 44747  53.0430 356.7343 0002641 108.4293 251.7004 15.54417284364849
STARLINK-1043,44748,53.0481,9.96e-05,15.62855112,378.7414278141714,380.08753206897563,1 44748U 19074AM  26163.11030048  .00038543  00000+0  42310-3 0  9998,2 44748  53.0481  96.2565 0000996  92.6835 267.4292 15.62855112363369
STARLINK-1046,44751,53.0456,0.0007085,15.55278381,396.54026890888963,406.1467928211259,1 44751U 19074AQ  26163.16464600  .00088910  00000+0  12808-2 0  9993,2 44751  53.0456 117.8231 0007085  72.6655 287.5129 15.55278381363067
STARLINK-1047,44752,53.0701,0.0003704,15.34621959,459.5100079001959,464.57721369667615,1 44752U 19074AR  26162.99106539  .00008745  00000+0  26777-3 0  9997,2 44752  53.0701  64.7761 0003704 118.7557 241.3817 15.34621959363811
STARLINK-1048,44753,53.0442,0.0006488,15.67736782,361.0040733765036,369.75446008421386,1 44753U 19074AS  26162.99161030  .00051223  00000+0  46036-3 0  9994,2 44753  53.0442  68.4371 0006488  70.5990 289.5727 15.67736782363732
STARLINK-1063,44768,53.1538,0.0002449,15.494881,416.5580915077953,419.8869484006682,1 44768U 19074BH  26163.81010418  .00063986  00000+0  11419-2 0  9990,2 44768  53.1538 130.7095 0002449  72.4203 287.7074 15.49488100362970
STARLINK-1067,44771,53.0426,0.0001783,15.77434792,336.51417550642145,338.9090471212148,1 44771U 19074BL  26163.08574764  .00088433  00000+0  52204-3 0  9994,2 44771  53.0426  99.4800 0001783 121.8747 238.2446 15.77434792363318
STARLINK-1068,44772,53.042,0.0002031,15.76105846,340.1214527498587,342.8509636970384,1 44772U 19074BM  26163.85918284  .00075333  00000+0  47290-3 0  9993,2 44772  53.0420  69.3624 0002031 154.1314 205.9807 15.76105846363797
STARLINK-1114,44927,53.0402,0.0004777,15.6566985,368.08875523263123,374.5371797315638,1 44927U 20001P   26163.78009875  .00046281  00000+0  45303-3 0  9999,2 44927  53.0402 227.1660 0004777  12.4793 347.6339 15.65669850354926
STARLINK-1123,44930,53.1437,0.0006755,15.58805215,386.5412176774644,395.68647557125405,1 44930U 20001S   26163.26431301  .00081813  00000+0  10351-2 0  9993,2 44930  53.1437 256.9683 0006755 327.0099  33.0492 15.58805215354471
STARLINK-1094,44941,53.1521,0.0007121,15.54832497,397.8109926252164,407.46817463562274,1 44941U 20001AD  26163.81226395  .00031982  00000+0  47628-3 0  9991,2 44941  53.1521 229.4682 0007121 352.0050   8.0846 15.54832497354916
STARLINK-1122,44949,53.155,0.000637,15.54803724,398.4038315259586,407.0426474710803,1 44949U 20001AM  26162.47382766  .00058360  00000+0  86144-3 0  9990,2 44949  53.1550 236.5357 0006370 346.1627  13.9209 15.54803724354697
STARLINK-1080,44961,53.044,0.0003108,15.68132295,362.1497906577406,366.34085550977034,1 44961U 20001AZ  26163.78062780  .00051724  00000+0  45770-3 0  9997,2 44961  53.0440 187.4569 0003108  43.6070 316.5191 15.68132295355487
STARLINK-1090,44968,53.1485,0.0005433,15.51120426,409.76369991211413,417.1434422266375,1 44968U 20001BG  26163.75800230  .00060265  00000+0  10157-2 0  9991,2 44968  53.1485 218.1981 0005433 358.7056   1.3939 15.51120426355069
STARLINK-1132,45044,53.149,0.0004205,15.56333378,395.4299484955318,401.12891471451167,1 45044U 20006A   26163.84559940  .00070420  00000+0  98013-3 0  9993,2 45044  53.1490 158.6320 0004205  38.6435 321.4877 15.56333378351685
STARLINK-1131,45047,53.1557,0.0006024,15.52964218,403.9888448941565,412.1648753528334,1 45047U 20006D   26163.80620649  .00056291  00000+0  88887-3 0  9995,2 45047  53.1557 191.7821 0006024  16.0586 344.0614 15.52964218351212
STARLINK-1134,45048,53.0222,0.0007727,15.59574148,383.65977377312265,394.11753521958053,1 45048U 20006E   26163.83335647  .00219941  00000+0  26457-2 0  9997,2 45048  53.0222 141.2011 0007727  82.8659 286.0259 15.59574148  5970
STARLINK-1156,45054,53.1571,0.0004877,15.35453386,456.23939336818876,462.9088968191136,1 45054U 20006L   26163.81285664  .00032452  00000+0  93537-3 0  9999,2 45054  53.1571 197.9772 0004877   9.8313 350.2785 15.35453386351129
STARLINK-1166,45060,53.0438,0.0006173,15.60302573,382.60638843254037,390.95835789064677,1 45060U 20006S   26163.83369567  .00077880  00000+0  93169-3 0  9998,2 45060  53.0438 174.1917 0006173  24.4597 335.6707 15.60302573351448
STARLINK-1169,45061,53.1549,0.0005916,15.38805178,445.6020541134385,453.68068147821486,1 45061U 20006T   26163.25166278  .00043760  00000+0  11268-2 0  9998,2 45061  53.1549 199.0833 0005916 346.0818  14.0022 15.38805178351069
STARLINK-1171,45062,53.0376,0.0003418,15.7497116,342.4153800162876,347.0111204473451,1 45062U 20006U   26163.22900715  .00081011  00000+0  53358-3 0  9996,2 45062  53.0376 142.5555 0003418  19.1809 340.9338 15.74971160351835
STARLINK-1133,45064,53.1541,0.000557,15.35368636,456.01701831643095,463.63450883505357,1 45064U 20006W   26163.26342195  .00056109  00000+0  16085-2 0  9999,2 45064  53.1541 177.3297 0005570  18.8712 341.2497 15.35368636351375
STARLINK-1167,45071,53.1544,0.0004116,15.3785033,449.6558340554693,455.27878752411107,1 45071U 20006AD  26163.25884489  .00044038  00000+0  11699-2 0  9997,2 45071  53.1544 176.3389 0004116 351.1336   8.9594 15.37850330351382
STARLINK-1168,45072,53.156,0.0005102,15.35530475,455.85680837161453,462.83377530220423,1 45072U 20006AE  26163.30773129  .00033212  00000+0  95455-3 0  9997,2 45072  53.1560 177.3139 0005102  19.7961 340.3239 15.35530475351373
STARLINK-1172,45074,53.1526,0.0004633,15.38868714,446.29020938016765,452.6166546744844,1 45074U 20006AG  26163.73320537  .00045302  00000+0  11637-2 0  9999,2 45074  53.1526 173.4104 0004633 359.6847   0.4154 15.38868714351466
STARLINK-1153,45080,53.1565,0.0005634,15.38022781,448.1086381981868,455.80478779399164,1 45080U 20006AN  26163.30691268  .00054062  00000+0  14237-2 0  9993,2 45080  53.1565 176.0276 0005634 345.5562  14.5280 15.38022781351399
STARLINK-1151,45081,53.0461,0.0001572,15.87991739,306.8629084078566,308.9650028283031,1 45081U 20006AP  26163.83335647  .00249753  00000+0  87766-3 0  9999,2 45081  53.0461 127.6759 0001572 128.5720 159.1734 15.87991739  6034
STARLINK-1185,45087,53.157,0.0005956,15.46451921,423.0620196027776,431.1684360565687,1 45087U 20006AV  26163.29385212  .00059315  00000+0  11771-2 0  9993,2 45087  53.1570 155.9349 0005956  30.7597 329.3759 15.46451921351677
STARLINK-1183,45088,53.1537,0.0005381,15.3530804,456.3260796626673,463.68528881944803,1 45088U 20006AW  26163.28800598  .00032082  00000+0  92911-3 0  9990,2 45088  53.1537 162.0282 0005381  32.0403 328.0926 15.35308040351582
STARLINK-1152,45096,53.0318,0.0004244,15.4941716,415.54550270897926,421.3144287494906,1 45096U 20006BE  26163.16718342  .00072822  00000+0  12998-2 0  9993,2 45096  53.0318 117.0599 0004244  87.7361 272.4132 15.49417160352182
STARLINK-1184,45098,53.0495,0.000525,15.14472873,518.9564605820942,526.2022127355867,1 45098U 20006BG  26163.29417505  .00023911  00000+0  12963-2 0  9993,2 45098  53.0495 176.7141 0005250  45.3377 314.8043 15.14472873351354
STARLINK-1193,45100,53.0446,0.0004859,15.68333781,360.39199898603147,366.943684931447,1 45100U 20006BJ  26163.16998359  .00056990  00000+0  49919-3 0  9999,2 45100  53.0446 128.2754 0004859   0.9889 359.1135 15.68333781352027
STARLINK-1143,45179,53.0361,0.0009366,15.91554455,291.6795462420696,304.18515935372943,1 45179U 20012B   26163.83335647  .00190446  24563-4  58112-3 0  9996,2 45179  53.0361 215.2770 0009366   8.3362  51.4648 15.91554455  6059
STARLINK-1202,45183,53.1562,0.0001485,15.35095699,459.6206992962361,461.6518149536032,1 45183U 20012F   26162.71308415  .00044936  00000+0  13040-2 0  9997,2 45183  53.1562 321.4839 0001485 234.3361 125.7503 15.35095699349365
STARLINK-1216,45185,53.1575,0.0001549,15.35409184,458.646193933615,460.7645575016131,1 45185U 20012H   26162.75651926  .00046939  00000+0  13477-2 0  9990,2 45185  53.1575 321.1301 0001549 227.9990 132.0881 15.35409184349312
STARLINK-1225,45187,53.1576,0.0001565,15.35488039,458.40118305472424,460.541354442842,1 45187U 20012K   26163.14571578  .00050652  00000+0  14491-2 0  9994,2 45187  53.1576 319.7688 0001565 243.9218 116.1624 15.35488039349410
STARLINK-1230,45189,53.1567,0.0001532,15.35357364,458.8116502976027,460.90681234287877,1 45189U 20012M   26163.74301991  .00041320  00000+0  11906-2 0  9992,2 45189  53.1567 317.0488 0001532 252.5278 107.5558 15.35357364346735
